CCSDS_OMM_VERS = 2.0
CREATION_DATE  = 
ORIGINATOR     = 

OBJECT_NAME    = SL-4 R/B
OBJECT_ID      = 2014-021B
CENTER_NAME    = EARTH
REF_FRAME      = TEME
TIME_SYSTEM    = UTC
MEAN_ELEMENT_THEORY = SGP/SGP4

EPOCH          = 2025-12-21T04:47:19.804992
MEAN_MOTION    = 15.36854693
ECCENTRICITY   = .010099
INCLINATION    = 51.6090
RA_OF_ASC_NODE = 359.4745
ARG_OF_PERICENTER = 176.7234
MEAN_ANOMALY   = 183.4433

EPHEMERIS_TYPE = 0
CLASSIFICATION_TYPE = U
NORAD_CAT_ID   = 39679
ELEMENT_SET_NO = 999
REV_AT_EPOCH   = 64419
BSTAR          = .17832E-3
MEAN_MOTION_DOT = .7297E-4
MEAN_MOTION_DDOT = 0

CCSDS_OMM_VERS = 2.0
CREATION_DATE  = 
ORIGINATOR     = 

OBJECT_NAME    = ALOS-2
OBJECT_ID      = 2014-029A
CENTER_NAME    = EARTH
REF_FRAME      = TEME
TIME_SYSTEM    = UTC
MEAN_ELEMENT_THEORY = SGP/SGP4

EPOCH          = 2025-12-21T04:43:54.507360
MEAN_MOTION    = 14.79470972
ECCENTRICITY   = .0001402
INCLINATION    = 97.9231
RA_OF_ASC_NODE = 89.9231
ARG_OF_PERICENTER = 98.7565
MEAN_ANOMALY   = 261.3805

EPHEMERIS_TYPE = 0
CLASSIFICATION_TYPE = U
NORAD_CAT_ID   = 39766
ELEMENT_SET_NO = 999
REV_AT_EPOCH   = 62526
BSTAR          = .17939E-3
MEAN_MOTION_DOT = .1288E-4
MEAN_MOTION_DDOT = 0

CCSDS_OMM_VERS = 2.0
CREATION_DATE  = 
ORIGINATOR     = 

OBJECT_NAME    = YAOGAN-29
OBJECT_ID      = 2015-069A
CENTER_NAME    = EARTH
REF_FRAME      = TEME
TIME_SYSTEM    = UTC
MEAN_ELEMENT_THEORY = SGP/SGP4

EPOCH          = 2025-12-21T04:28:56.952192
MEAN_MOTION    = 14.82892140
ECCENTRICITY   = .0000579
INCLINATION    = 98.0209
RA_OF_ASC_NODE = 18.3858
ARG_OF_PERICENTER = 170.9636
MEAN_ANOMALY   = 189.1588

EPHEMERIS_TYPE = 0
CLASSIFICATION_TYPE = U
NORAD_CAT_ID   = 41038
ELEMENT_SET_NO = 999
REV_AT_EPOCH   = 54424
BSTAR          = .59725E-4
MEAN_MOTION_DOT = .43E-5
MEAN_MOTION_DDOT = 0

CCSDS_OMM_VERS = 2.0
CREATION_DATE  = 
ORIGINATOR     = 

OBJECT_NAME    = ASTRO-H (HITOMI)
OBJECT_ID      = 2016-012A
CENTER_NAME    = EARTH
REF_FRAME      = TEME
TIME_SYSTEM    = UTC
MEAN_ELEMENT_THEORY = SGP/SGP4

EPOCH          = 2025-12-20T15:01:05.803104
MEAN_MOTION    = 15.09397922
ECCENTRICITY   = .0009722
INCLINATION    = 30.9979
RA_OF_ASC_NODE = 146.5292
ARG_OF_PERICENTER = 257.8770
MEAN_ANOMALY   = 102.0779

EPHEMERIS_TYPE = 0
CLASSIFICATION_TYPE = U
NORAD_CAT_ID   = 41337
ELEMENT_SET_NO = 999
REV_AT_EPOCH   = 54027
BSTAR          = .13855E-3
MEAN_MOTION_DOT = .2365E-4
MEAN_MOTION_DDOT = 0

CCSDS_OMM_VERS = 2.0
CREATION_DATE  = 
ORIGINATOR     = 

OBJECT_NAME    = HXMT (HUIYAN)
OBJECT_ID      = 2017-034A
CENTER_NAME    = EARTH
REF_FRAME      = TEME
TIME_SYSTEM    = UTC
MEAN_ELEMENT_THEORY = SGP/SGP4

EPOCH          = 2025-12-21T03:45:53.414208
MEAN_MOTION    = 15.16324200
ECCENTRICITY   = .0031048
INCLINATION    = 43.0145
RA_OF_ASC_NODE = 92.9166
ARG_OF_PERICENTER = 98.7061
MEAN_ANOMALY   = 261.7305

EPHEMERIS_TYPE = 0
CLASSIFICATION_TYPE = U
NORAD_CAT_ID   = 42758
ELEMENT_SET_NO = 999
REV_AT_EPOCH   = 47061
BSTAR          = .23483E-3
MEAN_MOTION_DOT = .445E-4
MEAN_MOTION_DDOT = 0

CCSDS_OMM_VERS = 2.0
CREATION_DATE  = 
ORIGINATOR     = 

OBJECT_NAME    = CZ-2C R/B
OBJECT_ID      = 2018-054D
CENTER_NAME    = EARTH
REF_FRAME      = TEME
TIME_SYSTEM    = UTC
MEAN_ELEMENT_THEORY = SGP/SGP4

EPOCH          = 2025-12-20T11:13:40.275264
MEAN_MOTION    = 15.75638299
ECCENTRICITY   = .00151005
INCLINATION    = 35.1325
RA_OF_ASC_NODE = 128.4252
ARG_OF_PERICENTER = 222.0230
MEAN_ANOMALY   = 137.9345

EPHEMERIS_TYPE = 0
CLASSIFICATION_TYPE = U
NORAD_CAT_ID   = 43521
ELEMENT_SET_NO = 999
REV_AT_EPOCH   = 41627
BSTAR          = .52782706E-3
MEAN_MOTION_DOT = .85209E-3
MEAN_MOTION_DDOT = 0

CCSDS_OMM_VERS = 2.0
CREATION_DATE  = 
ORIGINATOR     = 

OBJECT_NAME    = SAOCOM 1A
OBJECT_ID      = 2018-076A
CENTER_NAME    = EARTH
REF_FRAME      = TEME
TIME_SYSTEM    = UTC
MEAN_ELEMENT_THEORY = SGP/SGP4

EPOCH          = 2025-12-19T21:29:30.366240
MEAN_MOTION    = 14.82168152
ECCENTRICITY   = .0001511
INCLINATION    = 97.8839
RA_OF_ASC_NODE = 178.2129
ARG_OF_PERICENTER = 80.1993
MEAN_ANOMALY   = 279.9391

EPHEMERIS_TYPE = 0
CLASSIFICATION_TYPE = U
NORAD_CAT_ID   = 43641
ELEMENT_SET_NO = 999
REV_AT_EPOCH   = 38954
BSTAR          = .13119E-3
MEAN_MOTION_DOT = .993E-5
MEAN_MOTION_DDOT = 0

CCSDS_OMM_VERS = 2.0
CREATION_DATE  = 
ORIGINATOR     = 

OBJECT_NAME    = H-2A R/B
OBJECT_ID      = 2018-084L
CENTER_NAME    = EARTH
REF_FRAME      = TEME
TIME_SYSTEM    = UTC
MEAN_ELEMENT_THEORY = SGP/SGP4

EPOCH          = 2025-12-21T00:32:46.888224
MEAN_MOTION    = 15.37645479
ECCENTRICITY   = .0026796
INCLINATION    = 98.8761
RA_OF_ASC_NODE = 190.8204
ARG_OF_PERICENTER = 297.4494
MEAN_ANOMALY   = 62.4022

EPHEMERIS_TYPE = 0
CLASSIFICATION_TYPE = U
NORAD_CAT_ID   = 43682
ELEMENT_SET_NO = 999
REV_AT_EPOCH   = 39367
BSTAR          = .36346E-3
MEAN_MOTION_DOT = .13492E-3
MEAN_MOTION_DDOT = 0

CCSDS_OMM_VERS = 2.0
CREATION_DATE  = 
ORIGINATOR     = 

OBJECT_NAME    = SAOCOM 1B
OBJECT_ID      = 2020-059A
CENTER_NAME    = EARTH
REF_FRAME      = TEME
TIME_SYSTEM    = UTC
MEAN_ELEMENT_THEORY = SGP/SGP4

EPOCH          = 2025-12-21T03:24:26.460288
MEAN_MOTION    = 14.82145318
ECCENTRICITY   = .0001422
INCLINATION    = 97.8833
RA_OF_ASC_NODE = 178.5413
ARG_OF_PERICENTER = 88.1346
MEAN_ANOMALY   = 272.0030

EPHEMERIS_TYPE = 0
CLASSIFICATION_TYPE = U
NORAD_CAT_ID   = 46265
ELEMENT_SET_NO = 999
REV_AT_EPOCH   = 28711
BSTAR          = .70513E-4
MEAN_MOTION_DOT = .509E-5
MEAN_MOTION_DDOT = 0

CCSDS_OMM_VERS = 2.0
CREATION_DATE  = 
ORIGINATOR     = 

OBJECT_NAME    = CSS (TIANHE)
OBJECT_ID      = 2021-035A
CENTER_NAME    = EARTH
REF_FRAME      = TEME
TIME_SYSTEM    = UTC
MEAN_ELEMENT_THEORY = SGP/SGP4

EPOCH          = 2025-12-21T04:02:53.734272
MEAN_MOTION    = 15.59521319
ECCENTRICITY   = .0007742
INCLINATION    = 41.4686
RA_OF_ASC_NODE = 325.5220
ARG_OF_PERICENTER = 104.9894
MEAN_ANOMALY   = 255.1802

EPHEMERIS_TYPE = 0
CLASSIFICATION_TYPE = U
NORAD_CAT_ID   = 48274
ELEMENT_SET_NO = 999
REV_AT_EPOCH   = 26534
BSTAR          = .18367E-3
MEAN_MOTION_DOT = .14709E-3
MEAN_MOTION_DDOT = 0

CCSDS_OMM_VERS = 2.0
CREATION_DATE  = 
ORIGINATOR     = 

OBJECT_NAME    = COSMOS 2550
OBJECT_ID      = 2021-056A
CENTER_NAME    = EARTH
REF_FRAME      = TEME
TIME_SYSTEM    = UTC
MEAN_ELEMENT_THEORY = SGP/SGP4

EPOCH          = 2025-12-19T21:34:23.418624
MEAN_MOTION    = 15.33838622
ECCENTRICITY   = .0008368
INCLINATION    = 67.1455
RA_OF_ASC_NODE = 282.2793
ARG_OF_PERICENTER = 269.6426
MEAN_ANOMALY   = 90.3770

EPHEMERIS_TYPE = 0
CLASSIFICATION_TYPE = U
NORAD_CAT_ID   = 48865
ELEMENT_SET_NO = 999
REV_AT_EPOCH   = 25122
BSTAR          = .8251269E-5
MEAN_MOTION_DOT = .8E-6
MEAN_MOTION_DDOT = 0

CCSDS_OMM_VERS = 2.0
CREATION_DATE  = 
ORIGINATOR     = 

OBJECT_NAME    = CZ-2C R/B
OBJECT_ID      = 2022-058K
CENTER_NAME    = EARTH
REF_FRAME      = TEME
TIME_SYSTEM    = UTC
MEAN_ELEMENT_THEORY = SGP/SGP4

EPOCH          = 2025-12-21T04:40:41.201184
MEAN_MOTION    = 15.48883114
ECCENTRICITY   = .0044918
INCLINATION    = 50.1912
RA_OF_ASC_NODE = 0.4162
ARG_OF_PERICENTER = 233.4652
MEAN_ANOMALY   = 126.2177

EPHEMERIS_TYPE = 0
CLASSIFICATION_TYPE = U
NORAD_CAT_ID   = 52794
ELEMENT_SET_NO = 999
REV_AT_EPOCH   = 19794
BSTAR          = .31203E-3
MEAN_MOTION_DOT = .17413E-3
MEAN_MOTION_DDOT = 0

