SL-4 R/B                
1 39679U 14021B   25355.19953478  .00007297  00000+0  17832-3 0  9996
2 39679  51.6090 359.4745 0100990 176.7234 183.4433 15.36854693644193
ALOS-2                  
1 39766U 14029A   25355.19715865  .00001288  00000+0  17939-3 0  9999
2 39766  97.9231  89.9231 0001402  98.7565 261.3805 14.79470972625269
YAOGAN-29               
1 41038U 15069A   25355.18677028  .00000430  00000+0  59725-4 0  9994
2 41038  98.0209  18.3858 0000579 170.9636 189.1588 14.82892140544240
ASTRO-H (HITOMI)        
1 41337U 16012A   25354.62576161  .00002365  00000+0  13855-3 0  9991
2 41337  30.9979 146.5292 0009722 257.8770 102.0779 15.09397922540273
HXMT (HUIYAN)           
1 42758U 17034A   25355.15686822  .00004450  00000+0  23483-3 0  9994
2 42758  43.0145  92.9166 0031048  98.7061 261.7305 15.16324200470611
CZ-2C R/B               
1 43521U 18054D   25354.46782726  .00085209  00000+0  52783-3 0  9995
2 43521  35.1325 128.4252 0015100 222.0230 137.9345 15.75638299416275
SAOCOM 1A               
1 43641U 18076A   25353.89549035  .00000993  00000+0  13119-3 0  9999
2 43641  97.8839 178.2129 0001511  80.1993 279.9391 14.82168152389549
H-2A R/B                
1 43682U 18084L   25355.02276491  .00013492  00000+0  36346-3 0  9998
2 43682  98.8761 190.8204 0026796 297.4494  62.4022 15.37645479393672
SAOCOM 1B               
1 46265U 20059A   25355.14197292  .00000509  00000+0  70513-4 0  9997
2 46265  97.8833 178.5413 0001422  88.1346 272.0030 14.82145318287111
CSS (TIANHE)            
1 48274U 21035A   25355.16867748  .00014709  00000+0  18367-3 0  9991
2 48274  41.4686 325.5220 0007742 104.9894 255.1802 15.59521319265344
COSMOS 2550             
1 48865U 21056A   25353.89888216  .00000080  00000+0  82513-5 0  9994
2 48865  67.1455 282.2793 0008368 269.6426  90.3770 15.33838622251223
CZ-2C R/B               
1 52794U 22058K   25355.19492131  .00017413  00000+0  31203-3 0  9991
2 52794  50.1912   0.4162 0044918 233.4652 126.2177 15.48883114197940
